CUTE-1 (CO-55)          
1 27844U 03031E   21243.60724716  .00000078  00000-0  54941-4 0  9999
2 27844  98.6814 250.6811 0009093 215.8958 144.1610 14.22328878942664
CUBESAT XI-IV (CO-57)   
1 27848U 03031J   21243.83393878  .00000058  00000-0  46137-4 0  9995
2 27848  98.6869 251.4643 0008799 229.9886 130.0519 14.21903570942522
CUBESAT XI-V            
1 28895U 05043F   21243.88414630  .00000235  00000-0  53832-4 0  9995
2 28895  98.0687  15.5167 0016077 337.2042  22.8445 14.63950673845049
CUTE-1.7+APD II (CO-65) 
1 32785U 08021C   21243.87828666  .00000531  00000-0  62306-4 0  9999
2 32785  97.6179 219.8219 0014399 110.6549 249.6213 14.88784344723460
AAUSAT-II               
1 32788U 08021F   21243.88786359  .00000785  00000-0  75308-4 0  9992
2 32788  97.5095 235.4025 0012407  24.0122 336.1675 14.95719230725131
DELFI-C3 (DO-64)        
1 32789U 08021G   21243.73630893  .00002752  00000-0  17623-3 0  9999
2 32789  97.3721 276.1979 0010081 238.3065 121.7182 15.09319859728186
SEEDS II (CO-66)        
1 32791U 08021J   21243.50329164  .00000992  00000-0  10428-3 0  9993
2 32791  97.5770 225.2963 0014788  77.6413 282.6460 14.91496326724044
SWISSCUBE               
1 35932U 09051B   21243.50770115  .00000219  00000-0  60245-4 0  9998
2 35932  98.5986  85.8733 0006782 210.3738 149.7067 14.56570828633888
BEESAT-1                
1 35933U 09051C   21243.53919307  .00000184  00000-0  52303-4 0  9997
2 35933  98.5943  87.6958 0004796 222.5091 137.5735 14.56624109633969
ITUPSAT1                
1 35935U 09051E   21243.51939523  .00000163  00000-0  48418-4 0  9998
2 35935  98.6046  87.7982 0007091 226.8044 133.2560 14.55753658633690
TISAT 1                 
1 36799U 10035E   21243.77586143  .00000713  00000-0  76713-4 0  9995
2 36799  98.2050  77.6427 0011488 332.8835  27.1781 14.91832450604561
M-CUBED & EXP-1 PRIME   
1 37855U 11061F   21243.86696910  .00001556  00000-0  81438-4 0  9999
2 37855 101.7145 206.4114 0165534 206.2109 153.0657 15.08057172537548
AEROCUBE 4.5A           
1 38767U 12048K   21243.55061197  .00001070  00000-0  94333-4 0  9996
2 38767  64.6652 299.5984 0162254 343.5388  16.0488 14.92928628107480
AEROCUBE 4.5B           
1 38768U 12048L   21243.85055424  .00002162  00000-0  16130-3 0  9997
2 38768  64.6657 259.1436 0154100 338.1220  21.3358 14.96852590107771
STRAND-1                
1 39090U 13009E   21243.77178433  .00000045  00000-0  30600-4 0  9998
2 39090  98.4236  84.1789 0010222  58.1768 302.0412 14.35179265445844
SOMP                    
1 39134U 13015E   21243.90370737  .00002978  00000-0  13455-3 0  9995
2 39134  64.8630 287.0322 0016197 317.4867  42.5006 15.22963585462705
BEESAT-3                
1 39135U 13015F   21243.60389120  .00002795  00000-0  13945-3 0  9990
2 39135  64.8685 318.4496 0012814 337.8966  22.1607 15.19676962462027
BEESAT-2                
1 39136U 13015G   21243.63421619  .00002984  00000-0  15078-3 0  9993
2 39136  64.8768 325.0591 0018517 242.7539 117.1702 15.19014493461852
NEE-01 PEGASO           
1 39151U 13018B   21243.51942939  .00000381  00000-0  56725-4 0  9997
2 39151  97.9825 345.5530 0018312 113.4461 246.8678 14.80395250450772
ESTCUBE 1               
1 39161U 13021C   21243.77553609  .00000219  00000-0  42233-4 0  9991
2 39161  97.9340 323.2249 0008380 272.3835  87.6409 14.72520529446834
POPACS 1                
1 39268U 13055D   21243.57115833  .00013596  00000-0  36212-3 0  9998
2 39268  81.0005 189.4597 0598980 351.1570   7.9413 14.43704123411399
POPACS 2                
1 39269U 13055E   21243.40699462  .00004094  00000-0  11346-3 0  9990
2 39269  81.0109 238.3921 0667498 117.8723 249.1710 14.28196142409945
POPACS 3                
1 39270U 13055F   21243.35770750  .00003028  00000-0  93412-4 0  9997
2 39270  81.0130 266.4955 0702079 197.7965 159.7464 14.18681056387466
ZACUBE-1 (TSHEPISOSAT)  
1 39417U 13066B   21243.89031625  .00000446  00000-0  61833-4 0  9995
2 39417  97.5992 224.3343 0056944 274.0883  85.3823 14.81579500420249
WNISAT-1                
1 39423U 13066H   21243.71872767  .00000144  00000-0  38608-4 0  9992
2 39423  97.7833 140.9654 0174632 322.8836  36.0385 14.53245966412371
TRITON-1                
1 39427U 13066M   21243.82532140  .00000389  00000-0  68938-4 0  9996
2 39427  97.7788 187.9216 0114561 109.8751 251.4843 14.68289598416273
DELFI-N3XT              
1 39428U 13066N   21243.80293327  .00000616  00000-0  10410-3 0  9990
2 39428  97.7829 186.3862 0120697 122.8072 238.4827 14.68082768416028
GOMX-1                  
1 39430U 13066Q   21243.86964406  .00000255  00000-0  55328-4 0  9999
2 39430  97.8102 162.6040 0149019 237.2289 121.4492 14.59663181414044
CUBEBUG-2 (LO-74)       
1 39440U 13066AA  21243.89076383  .00000546  00000-0  82056-4 0  9992
2 39440  97.6830 209.5404 0079659 351.9521   8.0405 14.76301540417551
NEE-02 KRYSAOR          
1 39441U 13066AB  21243.87158582  .00000402  00000-0  63648-4 0  9990
2 39441  97.6927 206.8336 0081587   3.5133 356.6632 14.75224754417335
FUNCUBE-1 (AO-73)       
1 39444U 13066AE  21243.89545460  .00000525  00000-0  70153-4 0  9995
2 39444  97.5894 226.7164 0055950 263.7371  95.7468 14.82500481418611
UWE-3                   
1 39446U 13066AG  21243.86919489  .00000514  00000-0  74066-4 0  9995
2 39446  97.6437 216.3707 0068522 314.4351  45.1266 14.78844052417654
AEROCUBE 5A             
1 39465U 13072D   21243.92943114  .00005427  00000-0  42596-3 0  9992
2 39465 120.4923 325.1656 0243192 339.5190  19.6256 14.82350003106539
AEROCUBE 5B             
1 39466U 13072E   21243.63630705  .00014330  00000-0  87213-3 0  9998
2 39466 120.4680  26.3358 0211860 353.1393   6.6791 14.94004042107165
BRITE-CA1 (TORONTO)     
1 40020U 14033L   21243.91865579  .00000184  00000-0  39359-4 0  9995
2 40020  97.7492  53.2462 0088643 106.8490 254.2460 14.66763681385215
DUCHIFAT-1              
1 40021U 14033M   21243.81262182  .00000761  00000-0  81951-4 0  9992
2 40021  97.9750 184.8219 0011248 277.9965  81.9976 14.91444936391514
NANOSATC-BR1            
1 40024U 14033Q   21243.82419406  .00000774  00000-0  85100-4 0  9993
2 40024  97.9526 179.5709 0010664 284.5938  75.4096 14.90528061390823
QB50P1                  
1 40025U 14033R   21243.79363734  .00000549  00000-0  63620-4 0  9995
2 40025  97.9329 174.6844 0011002 294.3071  65.6997 14.89516298390632
QB50P2                  
1 40032U 14033Y   21243.78454123  .00000522  00000-0  61449-4 0  9993
2 40032  97.9155 171.0236 0010388 291.6663  68.3447 14.89018885390501
PERSEUS-M2              
1 40037U 14033AD  21243.79283502  .00000202  00000-0  28964-4 0  9990
2 40037  97.8866 162.8849 0013290 312.6425  47.3669 14.86704671390085
PERSEUS-M1              
1 40039U 14033AF  21243.78012840  .00000226  00000-0  31873-4 0  9995
2 40039  97.8798 161.1070 0013109 311.3306  48.6781 14.86324350389979
POLYITAN-1              
1 40042U 14033AJ  21243.78758546  .00000673  00000-0  76885-4 0  9997
2 40042  97.9425 175.5526 0013135 284.6627  75.3134 14.89336710390521
TIGRISAT                
1 40043U 14033AK  21243.77934432  .00000249  00000-0  43569-4 0  9999
2 40043  97.6687  83.6095 0060210  15.8757 344.4322 14.74574482386936
AEROCUBE 6A             
1 40045U 14033AM  21243.53749104  .00000448  00000-0  70764-4 0  9993
2 40045  97.6893  90.9932 0058065   6.1312 354.0596 14.75864801387011
AEROCUBE 6B             
1 40046U 14033AN  21243.54260871  .00000566  00000-0  87417-4 0  9998
2 40046  97.6791  89.7440 0057008   4.9838 355.1928 14.75924413387011
UKUBE-1                 
1 40074U 14037F   21243.59680867  .00000438  00000-0  58992-4 0  9993
2 40074  98.4203 103.6024 0004741 130.4961 229.6692 14.84616124387055
BRITE-PL2 (HEWELIUSZ)   
1 40119U 14049B   21243.84465430  .00000281  00000-0  39453-4 0  9998
2 40119  97.8885 337.5439 0018755 108.4427 251.8828 14.84691561381032
FIREBIRD 4              
1 40378U 15003C   21243.70034475  .00004996  00000-0  18066-3 0  9995
2 40378  99.1098  40.9237 0115231 280.5111  78.3155 15.23010715364249
GRIFEX                  
1 40379U 15003D   21243.92845600  .00002420  00000-0  99804-4 0  9990
2 40379  99.1054  29.8550 0126455 314.2528  44.8375 15.18465511363639
CP10 (EXOCUBE)          
1 40380U 15003E   21243.64704641  .00002306  00000-0  10051-3 0  9999
2 40380  99.1062  23.6300 0132583 335.1355  24.3521 15.16079948363206
AEROCUBE 8A             
1 40659U 15025J   21243.84311254  .00142135  18410-4  39873-3 0  9994
2 40659  55.0023  18.6343 0036498 266.5681  93.1195 15.92179183112682
AEROCUBE 8B             
1 40660U 15025K   21243.64829691  .00252754  35894-4  59734-3 0  9995
2 40660  54.9972  14.7181 0033344 271.8121  87.9114 15.95340127112703
TIANWANG 1A (TW-1A)     
1 40928U 15051D   21243.86510738  .00009579  00000-0  19281-3 0  9999
2 40928  97.0748 266.9825 0010036  27.9191  96.7662 15.46743383333343
EXACTVIEW 9             
1 40936U 15052G   21243.26776666  .00000965  00000-0  45599-4 0  9999
2 40936   6.0036  83.7748 0010283   4.5253 355.4967 14.76732841320242
AEROCUBE 5C             
1 40965U 15058B   21243.62632007  .00000551  00000-0  76127-4 0  9999
2 40965  64.7750 250.2835 0209333 287.9220  69.9160 14.74820663106212
AEROCUBE 7              
1 40966U 15058C   21243.37218540  .00000697  00000-0  90794-4 0  9991
2 40966  64.7750 248.8499 0208109 287.6523  70.1954 14.75188079106163
ATHENOXAT 1             
1 41168U 15077C   21242.87903410  .00004531  00000-0  19290-3 0  9990
2 41168  14.9875  73.6694 0010396 134.1188 261.8963 15.16012749316096
GALASSIA                
1 41170U 15077E   21242.84686940  .00004706  00000-0  20044-3 0  9999
2 41170  14.9894  64.4765 0011942 161.7730 198.3020 15.16194388316003
VELOX-II                
1 41171U 15077F   21243.93992314  .00002849  00000-0  12011-3 0  9997
2 41171  14.9909 116.9351 0008417  41.2686 318.8270 15.12753414315675
